[{"OBJECT_NAME":"STARLINK-3285","OBJECT_ID":"2021-125AB","EPOCH":"2026-03-09T19:16:25.120128","MEAN_MOTION":15.08829905,"ECCENTRICITY":9.903e-5,"INCLINATION":53.2154,"RA_OF_ASC_NODE":248.622,"ARG_OF_PERICENTER":96.1062,"MEAN_ANOMALY":264.0043,"EPHEMERIS_TYPE":0,"CLASSIFICATION_TYPE":"U","NORAD_CAT_ID":50181,"ELEMENT_SET_NO":999,"REV_AT_EPOCH":23662,"BSTAR":0.0003869058,"MEAN_MOTION_DOT":5.873e-5,"MEAN_MOTION_DDOT":0},{"OBJECT_NAME":"LEMUR-2-AHMED-ASRAR","OBJECT_ID":"2024-149DN","EPOCH":"2026-03-09T17:35:01.338432","MEAN_MOTION":15.10376432,"ECCENTRICITY":0.00016334,"INCLINATION":97.7021,"RA_OF_ASC_NODE":152.9847,"ARG_OF_PERICENTER":18.5035,"MEAN_ANOMALY":341.6253,"EPHEMERIS_TYPE":0,"CLASSIFICATION_TYPE":"U","NORAD_CAT_ID":60576,"ELEMENT_SET_NO":999,"REV_AT_EPOCH":8554,"BSTAR":0.0007977347,"MEAN_MOTION_DOT":0.00013045,"MEAN_MOTION_DDOT":0}]
